GLOBALSTAR M094         
1 39074U 13005C   26007.47165871 -.00000079  00000+0  13907-3 0  9995
2 39074  51.9967 280.1334 0000894  46.3521 313.7420 12.62265705598171
GLOBALSTAR M096         
1 39075U 13005D   26007.24709465 -.00000088  00000+0  90430-4 0  9991
2 39075  52.0099 329.4882 0000541  27.5530 332.5365 12.62269751597064
GLOBALSTAR M078         
1 39076U 13005E   26007.37940711 -.00000023  00000+0  45188-3 0  9995
2 39076  51.9886  53.3187 0000510 251.4826 108.5985 12.62272268595705
GLOBALSTAR M095         
1 39077U 13005F   26007.40575410 -.00000087  00000+0  91472-4 0  9998
2 39077  52.0096  50.6145 0000077   9.6067 350.4801 12.62267662595564
GLOBALSTAR M087         
1 52888U 22064A   26006.78540811 -.00000118  00000+0 -80963-4 0  9994
2 52888  51.9970 193.8332 0000991  75.3312 284.7665 12.62262276170757
